UNKNOWN                 
1 89183U          26057.21907461  .00000538  00000+0  51129-3 0  9995
2 89183  99.2183 331.5783 0130364 316.3144  42.7749 13.81689820617397
UNKNOWN                 
1 89184U          26058.58241906  .00023770  00000+0  27385-2 0  9991
2 89184  98.3868 292.1294 0007975 248.8861 111.1500 14.85673699503564
UNKNOWN                 
1 89213U          26055.61086014  .00000399  00000+0  28251-3 0  9998
2 89213  98.7735 289.8637 0226733 283.8627  73.7404 13.91690108462944
UNKNOWN                 
1 89251U          26057.97576820  .00017290  00000+0  97873-2 0  9993
2 89251  62.4733 263.6053 2827044 107.7495 284.8994  9.26702182380245
UNKNOWN                 
1 89261U          26051.43209576  .00000802  00000+0  25036-3 0  9994
2 89261  98.1600  47.8830 0011827 311.4506  48.5668 14.43288970543860
UNKNOWN                 
1 89349U          26054.31927184  .00000618  00000+0  21338-2 0  9998
2 89349  90.2492   8.9742 0032176  73.8867 286.5792 12.96277143488156
UNKNOWN                 
1 89379U          26055.04061436  .00003825  00000+0  48882-2 0  9997
2 89379 100.4790  80.7903 0041065 300.4095  59.2988 13.63376249590765
UNKNOWN                 
1 89395U          26056.82220192  .00000626  00000+0  75394-2 0  9992
2 89395 102.3782  25.8897 0224835 357.8513  32.7978 12.01543779533763
UNKNOWN                 
1 89403U          26057.31301697  .00000634  00000+0  21127-2 0  9991
2 89403  90.2521   7.5197 0032305  21.9546 132.8440 12.98845242487639
UNKNOWN                 
1 89484U          26056.15769647  .00144731  00000+0  57090-1 0  9998
2 89484  83.9529 132.9378 2873043 287.2446  43.6611  9.25856849362271
UNKNOWN                 
1 89493U          26058.15177765  .00002732  00000+0  13420-2 0  9998
2 89493  99.0181 133.0666 0083305 182.5822 177.4933 14.16750983474761
UNKNOWN                 
1 89494U          26057.43285511  .00002640  00000+0  12985-2 0  9991
2 89494  99.0174 132.2120 0083920 184.7163 175.3229 14.16679072474512
