CCSDS_OMM_VERS = 2.0
CREATION_DATE  = 
ORIGINATOR     = 

OBJECT_NAME    = UNKNOWN
OBJECT_ID      = 
CENTER_NAME    = EARTH
REF_FRAME      = TEME
TIME_SYSTEM    = UTC
MEAN_ELEMENT_THEORY = SGP/SGP4

EPOCH          = 2026-02-26T05:15:28.046304
MEAN_MOTION    = 13.81689820
ECCENTRICITY   = .0130364
INCLINATION    = 99.2183
RA_OF_ASC_NODE = 331.5783
ARG_OF_PERICENTER = 316.3144
MEAN_ANOMALY   = 42.7749

EPHEMERIS_TYPE = 0
CLASSIFICATION_TYPE = U
NORAD_CAT_ID   = 89183
ELEMENT_SET_NO = 999
REV_AT_EPOCH   = 61739
BSTAR          = .51129E-3
MEAN_MOTION_DOT = .538E-5
MEAN_MOTION_DDOT = 0

CCSDS_OMM_VERS = 2.0
CREATION_DATE  = 
ORIGINATOR     = 

OBJECT_NAME    = UNKNOWN
OBJECT_ID      = 
CENTER_NAME    = EARTH
REF_FRAME      = TEME
TIME_SYSTEM    = UTC
MEAN_ELEMENT_THEORY = SGP/SGP4

EPOCH          = 2026-02-27T13:58:41.006784
MEAN_MOTION    = 14.85673699
ECCENTRICITY   = .0007975
INCLINATION    = 98.3868
RA_OF_ASC_NODE = 292.1294
ARG_OF_PERICENTER = 248.8861
MEAN_ANOMALY   = 111.1500

EPHEMERIS_TYPE = 0
CLASSIFICATION_TYPE = U
NORAD_CAT_ID   = 89184
ELEMENT_SET_NO = 999
REV_AT_EPOCH   = 50356
BSTAR          = .27385E-2
MEAN_MOTION_DOT = .2377E-3
MEAN_MOTION_DDOT = 0

CCSDS_OMM_VERS = 2.0
CREATION_DATE  = 
ORIGINATOR     = 

OBJECT_NAME    = UNKNOWN
OBJECT_ID      = 
CENTER_NAME    = EARTH
REF_FRAME      = TEME
TIME_SYSTEM    = UTC
MEAN_ELEMENT_THEORY = SGP/SGP4

EPOCH          = 2026-02-24T14:39:38.316096
MEAN_MOTION    = 13.91690108
ECCENTRICITY   = .0226733
INCLINATION    = 98.7735
RA_OF_ASC_NODE = 289.8637
ARG_OF_PERICENTER = 283.8627
MEAN_ANOMALY   = 73.7404

EPHEMERIS_TYPE = 0
CLASSIFICATION_TYPE = U
NORAD_CAT_ID   = 89213
ELEMENT_SET_NO = 999
REV_AT_EPOCH   = 46294
BSTAR          = .28251E-3
MEAN_MOTION_DOT = .399E-5
MEAN_MOTION_DDOT = 0

CCSDS_OMM_VERS = 2.0
CREATION_DATE  = 
ORIGINATOR     = 

OBJECT_NAME    = UNKNOWN
OBJECT_ID      = 
CENTER_NAME    = EARTH
REF_FRAME      = TEME
TIME_SYSTEM    = UTC
MEAN_ELEMENT_THEORY = SGP/SGP4

EPOCH          = 2026-02-26T23:25:06.372480
MEAN_MOTION    = 9.26702182
ECCENTRICITY   = .2827044
INCLINATION    = 62.4733
RA_OF_ASC_NODE = 263.6053
ARG_OF_PERICENTER = 107.7495
MEAN_ANOMALY   = 284.8994

EPHEMERIS_TYPE = 0
CLASSIFICATION_TYPE = U
NORAD_CAT_ID   = 89251
ELEMENT_SET_NO = 999
REV_AT_EPOCH   = 38024
BSTAR          = .97873E-2
MEAN_MOTION_DOT = .1729E-3
MEAN_MOTION_DDOT = 0

CCSDS_OMM_VERS = 2.0
CREATION_DATE  = 
ORIGINATOR     = 

OBJECT_NAME    = UNKNOWN
OBJECT_ID      = 
CENTER_NAME    = EARTH
REF_FRAME      = TEME
TIME_SYSTEM    = UTC
MEAN_ELEMENT_THEORY = SGP/SGP4

EPOCH          = 2026-02-20T10:22:13.073664
MEAN_MOTION    = 14.43288970
ECCENTRICITY   = .0011827
INCLINATION    = 98.1600
RA_OF_ASC_NODE = 47.8830
ARG_OF_PERICENTER = 311.4506
MEAN_ANOMALY   = 48.5668

EPHEMERIS_TYPE = 0
CLASSIFICATION_TYPE = U
NORAD_CAT_ID   = 89261
ELEMENT_SET_NO = 999
REV_AT_EPOCH   = 54386
BSTAR          = .25036E-3
MEAN_MOTION_DOT = .802E-5
MEAN_MOTION_DDOT = 0

CCSDS_OMM_VERS = 2.0
CREATION_DATE  = 
ORIGINATOR     = 

OBJECT_NAME    = UNKNOWN
OBJECT_ID      = 
CENTER_NAME    = EARTH
REF_FRAME      = TEME
TIME_SYSTEM    = UTC
MEAN_ELEMENT_THEORY = SGP/SGP4

EPOCH          = 2026-02-23T07:39:45.086976
MEAN_MOTION    = 12.96277143
ECCENTRICITY   = .0032176
INCLINATION    = 90.2492
RA_OF_ASC_NODE = 8.9742
ARG_OF_PERICENTER = 73.8867
MEAN_ANOMALY   = 286.5792

EPHEMERIS_TYPE = 0
CLASSIFICATION_TYPE = U
NORAD_CAT_ID   = 89349
ELEMENT_SET_NO = 999
REV_AT_EPOCH   = 48815
BSTAR          = .21338E-2
MEAN_MOTION_DOT = .618E-5
MEAN_MOTION_DDOT = 0

CCSDS_OMM_VERS = 2.0
CREATION_DATE  = 
ORIGINATOR     = 

OBJECT_NAME    = UNKNOWN
OBJECT_ID      = 
CENTER_NAME    = EARTH
REF_FRAME      = TEME
TIME_SYSTEM    = UTC
MEAN_ELEMENT_THEORY = SGP/SGP4

EPOCH          = 2026-02-24T00:58:29.080704
MEAN_MOTION    = 13.63376249
ECCENTRICITY   = .0041065
INCLINATION    = 100.4790
RA_OF_ASC_NODE = 80.7903
ARG_OF_PERICENTER = 300.4095
MEAN_ANOMALY   = 59.2988

EPHEMERIS_TYPE = 0
CLASSIFICATION_TYPE = U
NORAD_CAT_ID   = 89379
ELEMENT_SET_NO = 999
REV_AT_EPOCH   = 59076
BSTAR          = .48882E-2
MEAN_MOTION_DOT = .3825E-4
MEAN_MOTION_DDOT = 0

CCSDS_OMM_VERS = 2.0
CREATION_DATE  = 
ORIGINATOR     = 

OBJECT_NAME    = UNKNOWN
OBJECT_ID      = 
CENTER_NAME    = EARTH
REF_FRAME      = TEME
TIME_SYSTEM    = UTC
MEAN_ELEMENT_THEORY = SGP/SGP4

EPOCH          = 2026-02-25T19:43:58.245888
MEAN_MOTION    = 12.01543779
ECCENTRICITY   = .0224835
INCLINATION    = 102.3782
RA_OF_ASC_NODE = 25.8897
ARG_OF_PERICENTER = 357.8513
MEAN_ANOMALY   = 32.7978

EPHEMERIS_TYPE = 0
CLASSIFICATION_TYPE = U
NORAD_CAT_ID   = 89395
ELEMENT_SET_NO = 999
REV_AT_EPOCH   = 53376
BSTAR          = .75394E-2
MEAN_MOTION_DOT = .626E-5
MEAN_MOTION_DDOT = 0

CCSDS_OMM_VERS = 2.0
CREATION_DATE  = 
ORIGINATOR     = 

OBJECT_NAME    = UNKNOWN
OBJECT_ID      = 
CENTER_NAME    = EARTH
REF_FRAME      = TEME
TIME_SYSTEM    = UTC
MEAN_ELEMENT_THEORY = SGP/SGP4

EPOCH          = 2026-02-26T07:30:44.666208
MEAN_MOTION    = 12.98845242
ECCENTRICITY   = .0032305
INCLINATION    = 90.2521
RA_OF_ASC_NODE = 7.5197
ARG_OF_PERICENTER = 21.9546
MEAN_ANOMALY   = 132.8440

EPHEMERIS_TYPE = 0
CLASSIFICATION_TYPE = U
NORAD_CAT_ID   = 89403
ELEMENT_SET_NO = 999
REV_AT_EPOCH   = 48763
BSTAR          = .21127E-2
MEAN_MOTION_DOT = .634E-5
MEAN_MOTION_DDOT = 0

CCSDS_OMM_VERS = 2.0
CREATION_DATE  = 
ORIGINATOR     = 

OBJECT_NAME    = UNKNOWN
OBJECT_ID      = 
CENTER_NAME    = EARTH
REF_FRAME      = TEME
TIME_SYSTEM    = UTC
MEAN_ELEMENT_THEORY = SGP/SGP4

EPOCH          = 2026-02-25T03:47:04.975008
MEAN_MOTION    = 9.25856849
ECCENTRICITY   = .2873043
INCLINATION    = 83.9529
RA_OF_ASC_NODE = 132.9378
ARG_OF_PERICENTER = 287.2446
MEAN_ANOMALY   = 43.6611

EPHEMERIS_TYPE = 0
CLASSIFICATION_TYPE = U
NORAD_CAT_ID   = 89484
ELEMENT_SET_NO = 999
REV_AT_EPOCH   = 36227
BSTAR          = .5709E-1
MEAN_MOTION_DOT = .144731E-2
MEAN_MOTION_DDOT = 0

CCSDS_OMM_VERS = 2.0
CREATION_DATE  = 
ORIGINATOR     = 

OBJECT_NAME    = UNKNOWN
OBJECT_ID      = 
CENTER_NAME    = EARTH
REF_FRAME      = TEME
TIME_SYSTEM    = UTC
MEAN_ELEMENT_THEORY = SGP/SGP4

EPOCH          = 2026-02-27T03:38:33.588960
MEAN_MOTION    = 14.16750983
ECCENTRICITY   = .0083305
INCLINATION    = 99.0181
RA_OF_ASC_NODE = 133.0666
ARG_OF_PERICENTER = 182.5822
MEAN_ANOMALY   = 177.4933

EPHEMERIS_TYPE = 0
CLASSIFICATION_TYPE = U
NORAD_CAT_ID   = 89493
ELEMENT_SET_NO = 999
REV_AT_EPOCH   = 47476
BSTAR          = .1342E-2
MEAN_MOTION_DOT = .2732E-4
MEAN_MOTION_DDOT = 0

CCSDS_OMM_VERS = 2.0
CREATION_DATE  = 
ORIGINATOR     = 

OBJECT_NAME    = UNKNOWN
OBJECT_ID      = 
CENTER_NAME    = EARTH
REF_FRAME      = TEME
TIME_SYSTEM    = UTC
MEAN_ELEMENT_THEORY = SGP/SGP4

EPOCH          = 2026-02-26T10:23:18.681504
MEAN_MOTION    = 14.16679072
ECCENTRICITY   = .008392
INCLINATION    = 99.0174
RA_OF_ASC_NODE = 132.2120
ARG_OF_PERICENTER = 184.7163
MEAN_ANOMALY   = 175.3229

EPHEMERIS_TYPE = 0
CLASSIFICATION_TYPE = U
NORAD_CAT_ID   = 89494
ELEMENT_SET_NO = 999
REV_AT_EPOCH   = 47451
BSTAR          = .12985E-2
MEAN_MOTION_DOT = .264E-4
MEAN_MOTION_DDOT = 0

